[{"OBJECT_NAME":"OBJECT C","OBJECT_ID":"2024-153C","EPOCH":"2026-03-09T22:45:52.192800","MEAN_MOTION":15.36401606,"ECCENTRICITY":0.00103806,"INCLINATION":97.6622,"RA_OF_ASC_NODE":206.7519,"ARG_OF_PERICENTER":145.6814,"MEAN_ANOMALY":214.5102,"EPHEMERIS_TYPE":0,"CLASSIFICATION_TYPE":"U","NORAD_CAT_ID":60747,"ELEMENT_SET_NO":999,"REV_AT_EPOCH":8488,"BSTAR":0.0009101215,"MEAN_MOTION_DOT":0.00032382,"MEAN_MOTION_DDOT":0},{"OBJECT_NAME":"ARIANE 2 DEB","OBJECT_ID":"1989-006BL","EPOCH":"2026-03-03T21:49:25.739616","MEAN_MOTION":2.30212773,"ECCENTRICITY":0.71859207,"INCLINATION":8.5184,"RA_OF_ASC_NODE":11.0885,"ARG_OF_PERICENTER":204.2629,"MEAN_ANOMALY":90.0267,"EPHEMERIS_TYPE":0,"CLASSIFICATION_TYPE":"U","NORAD_CAT_ID":33568,"ELEMENT_SET_NO":999,"REV_AT_EPOCH":11380,"BSTAR":0.00066978204,"MEAN_MOTION_DOT":9.0e-8,"MEAN_MOTION_DDOT":0}]
